[{"OBJECT_NAME":"2023-091H","OBJECT_ID":"2023-091H","EPOCH":"2026-04-25T22:13:25.061664","MEAN_MOTION":15.27502293,"ECCENTRICITY":0.00084229,"INCLINATION":97.5087,"RA_OF_ASC_NODE":178.7313,"ARG_OF_PERICENTER":300.9359,"MEAN_ANOMALY":59.1051,"EPHEMERIS_TYPE":0,"CLASSIFICATION_TYPE":"U","NORAD_CAT_ID":57173,"ELEMENT_SET_NO":999,"REV_AT_EPOCH":15632,"BSTAR":0.00048660251,"MEAN_MOTION_DOT":0.00013039,"MEAN_MOTION_DDOT":0},{"OBJECT_NAME":"2023-091J","OBJECT_ID":"2023-091J","EPOCH":"2026-04-25T21:36:55.674432","MEAN_MOTION":15.13569681,"ECCENTRICITY":0.0012419,"INCLINATION":97.5102,"RA_OF_ASC_NODE":169.7438,"ARG_OF_PERICENTER":334.8264,"MEAN_ANOMALY":25.2361,"EPHEMERIS_TYPE":0,"CLASSIFICATION_TYPE":"U","NORAD_CAT_ID":57174,"ELEMENT_SET_NO":999,"REV_AT_EPOCH":15572,"BSTAR":0.00025274574,"MEAN_MOTION_DOT":4.475e-5,"MEAN_MOTION_DDOT":0},{"OBJECT_NAME":"CUBEBEL 2 (EU11S)","OBJECT_ID":"2023-091K","EPOCH":"2026-04-25T22:37:35.959584","MEAN_MOTION":15.2792028,"ECCENTRICITY":0.00084732,"INCLINATION":97.509,"RA_OF_ASC_NODE":178.7342,"ARG_OF_PERICENTER":302.8332,"MEAN_ANOMALY":57.2091,"EPHEMERIS_TYPE":0,"CLASSIFICATION_TYPE":"U","NORAD_CAT_ID":57175,"ELEMENT_SET_NO":999,"REV_AT_EPOCH":15632,"BSTAR":0.00054289918,"MEAN_MOTION_DOT":0.00014747,"MEAN_MOTION_DDOT":0},{"OBJECT_NAME":"SITRO-AIS 5 (KATYS)","OBJECT_ID":"2023-091L","EPOCH":"2026-04-25T21:43:21.643968","MEAN_MOTION":15.28251523,"ECCENTRICITY":0.00098855,"INCLINATION":97.51,"RA_OF_ASC_NODE":179.3471,"ARG_OF_PERICENTER":287.6071,"MEAN_ANOMALY":72.4088,"EPHEMERIS_TYPE":0,"CLASSIFICATION_TYPE":"U","NORAD_CAT_ID":57176,"ELEMENT_SET_NO":999,"REV_AT_EPOCH":15635,"BSTAR":0.00048854661,"MEAN_MOTION_DOT":0.000134,"MEAN_MOTION_DDOT":0},{"OBJECT_NAME":"ZORKIY-2M 1","OBJECT_ID":"2023-091M","EPOCH":"2026-04-25T21:28:27.187968","MEAN_MOTION":15.20219319,"ECCENTRICITY":0.00118786,"INCLINATION":97.5135,"RA_OF_ASC_NODE":175.0423,"ARG_OF_PERICENTER":302.0494,"MEAN_ANOMALY":57.9587,"EPHEMERIS_TYPE":0,"CLASSIFICATION_TYPE":"U","NORAD_CAT_ID":57177,"ELEMENT_SET_NO":999,"REV_AT_EPOCH":15605,"BSTAR":0.00036774595,"MEAN_MOTION_DOT":7.918e-5,"MEAN_MOTION_DDOT":0},{"OBJECT_NAME":"CUBESX-HSE 3 (RS42S)","OBJECT_ID":"2023-091N","EPOCH":"2026-04-25T22:27:55.663488","MEAN_MOTION":15.29889972,"ECCENTRICITY":0.00093447,"INCLINATION":97.5128,"RA_OF_ASC_NODE":180.9085,"ARG_OF_PERICENTER":276.1432,"MEAN_ANOMALY":83.8744,"EPHEMERIS_TYPE":0,"CLASSIFICATION_TYPE":"U","NORAD_CAT_ID":57178,"ELEMENT_SET_NO":999,"REV_AT_EPOCH":15643,"BSTAR":0.00052219131,"MEAN_MOTION_DOT":0.00015068,"MEAN_MOTION_DDOT":0},{"OBJECT_NAME":"MONITOR-3 (RS58S)","OBJECT_ID":"2023-091Q","EPOCH":"2026-04-25T21:58:18.853536","MEAN_MOTION":15.26785405,"ECCENTRICITY":0.00102179,"INCLINATION":97.5122,"RA_OF_ASC_NODE":179.0111,"ARG_OF_PERICENTER":284.5473,"MEAN_ANOMALY":75.4632,"EPHEMERIS_TYPE":0,"CLASSIFICATION_TYPE":"U","NORAD_CAT_ID":57180,"ELEMENT_SET_NO":999,"REV_AT_EPOCH":15631,"BSTAR":0.00046563315,"MEAN_MOTION_DOT":0.0001221,"MEAN_MOTION_DDOT":0},{"OBJECT_NAME":"MONITOR-4 (RS57S)","OBJECT_ID":"2023-091S","EPOCH":"2026-04-25T21:32:51.391392","MEAN_MOTION":15.26880375,"ECCENTRICITY":0.00101597,"INCLINATION":97.5116,"RA_OF_ASC_NODE":178.9612,"ARG_OF_PERICENTER":284.9321,"MEAN_ANOMALY":75.0793,"EPHEMERIS_TYPE":0,"CLASSIFICATION_TYPE":"U","NORAD_CAT_ID":57182,"ELEMENT_SET_NO":999,"REV_AT_EPOCH":15631,"BSTAR":0.00044090164,"MEAN_MOTION_DOT":0.0001159,"MEAN_MOTION_DDOT":0},{"OBJECT_NAME":"MONITOR-2 (RS39S)","OBJECT_ID":"2023-091U","EPOCH":"2026-04-25T22:19:49.971936","MEAN_MOTION":15.1841974,"ECCENTRICITY":0.00097217,"INCLINATION":97.5116,"RA_OF_ASC_NODE":174.559,"ARG_OF_PERICENTER":297.946,"MEAN_ANOMALY":62.079,"EPHEMERIS_TYPE":0,"CLASSIFICATION_TYPE":"U","NORAD_CAT_ID":57184,"ELEMENT_SET_NO":999,"REV_AT_EPOCH":15602,"BSTAR":0.00026869719,"MEAN_MOTION_DOT":5.467e-5,"MEAN_MOTION_DDOT":0},{"OBJECT_NAME":"SVYATOBOR 1 (RS60S)","OBJECT_ID":"2023-091X","EPOCH":"2026-04-25T22:25:01.020576","MEAN_MOTION":15.2571402,"ECCENTRICITY":0.00078858,"INCLINATION":97.5127,"RA_OF_ASC_NODE":179.489,"ARG_OF_PERICENTER":275.4214,"MEAN_ANOMALY":84.6124,"EPHEMERIS_TYPE":0,"CLASSIFICATION_TYPE":"U","NORAD_CAT_ID":57187,"ELEMENT_SET_NO":999,"REV_AT_EPOCH":15634,"BSTAR":0.00041235199,"MEAN_MOTION_DOT":0.00010452,"MEAN_MOTION_DDOT":0},{"OBJECT_NAME":"HORS 1","OBJECT_ID":"2023-091Y","EPOCH":"2026-04-25T22:08:59.620992","MEAN_MOTION":15.25802022,"ECCENTRICITY":0.0007382,"INCLINATION":97.5106,"RA_OF_ASC_NODE":179.2473,"ARG_OF_PERICENTER":275.3804,"MEAN_ANOMALY":84.6592,"EPHEMERIS_TYPE":0,"CLASSIFICATION_TYPE":"U","NORAD_CAT_ID":57188,"ELEMENT_SET_NO":999,"REV_AT_EPOCH":15634,"BSTAR":0.00042563843,"MEAN_MOTION_DOT":0.00010819,"MEAN_MOTION_DDOT":0},{"OBJECT_NAME":"VIZARD-METEO (RS38S)","OBJECT_ID":"2023-091Z","EPOCH":"2026-04-25T22:29:22.816896","MEAN_MOTION":15.34357472,"ECCENTRICITY":0.00061485,"INCLINATION":97.5122,"RA_OF_ASC_NODE":184.4364,"ARG_OF_PERICENTER":248.6659,"MEAN_ANOMALY":111.3927,"EPHEMERIS_TYPE":0,"CLASSIFICATION_TYPE":"U","NORAD_CAT_ID":57189,"ELEMENT_SET_NO":999,"REV_AT_EPOCH":15667,"BSTAR":0.00056520284,"MEAN_MOTION_DOT":0.00018757,"MEAN_MOTION_DDOT":0},{"OBJECT_NAME":"SITRO-AIS 6 (CHIRKIN)","OBJECT_ID":"2023-091AC","EPOCH":"2026-04-25T21:34:29.775936","MEAN_MOTION":15.25056445,"ECCENTRICITY":0.00103594,"INCLINATION":97.5105,"RA_OF_ASC_NODE":178.7267,"ARG_OF_PERICENTER":292.9915,"MEAN_ANOMALY":67.0229,"EPHEMERIS_TYPE":0,"CLASSIFICATION_TYPE":"U","NORAD_CAT_ID":57192,"ELEMENT_SET_NO":999,"REV_AT_EPOCH":15631,"BSTAR":0.00027892066,"MEAN_MOTION_DOT":6.908e-5,"MEAN_MOTION_DDOT":0},{"OBJECT_NAME":"SITRO-AIS 8 (ANOKHIN)","OBJECT_ID":"2023-091AD","EPOCH":"2026-04-25T22:40:09.144192","MEAN_MOTION":15.30730929,"ECCENTRICITY":0.00091052,"INCLINATION":97.5092,"RA_OF_ASC_NODE":180.7722,"ARG_OF_PERICENTER":282.9174,"MEAN_ANOMALY":77.1049,"EPHEMERIS_TYPE":0,"CLASSIFICATION_TYPE":"U","NORAD_CAT_ID":57193,"ELEMENT_SET_NO":999,"REV_AT_EPOCH":15645,"BSTAR":0.000558897,"MEAN_MOTION_DOT":0.0001656,"MEAN_MOTION_DDOT":0},{"OBJECT_NAME":"SITRO-AIS 7 (FARTUSHNIY)","OBJECT_ID":"2023-091AE","EPOCH":"2026-04-25T21:24:16.145856","MEAN_MOTION":15.24773772,"ECCENTRICITY":0.00102372,"INCLINATION":97.5104,"RA_OF_ASC_NODE":178.5704,"ARG_OF_PERICENTER":294.1983,"MEAN_ANOMALY":65.8184,"EPHEMERIS_TYPE":0,"CLASSIFICATION_TYPE":"U","NORAD_CAT_ID":57194,"ELEMENT_SET_NO":999,"REV_AT_EPOCH":15630,"BSTAR":0.00026779745,"MEAN_MOTION_DOT":6.573e-5,"MEAN_MOTION_DDOT":0},{"OBJECT_NAME":"AVION KALUGA 650","OBJECT_ID":"2023-091AF","EPOCH":"2026-04-25T21:27:33.535296","MEAN_MOTION":15.19791223,"ECCENTRICITY":0.0008854,"INCLINATION":97.5132,"RA_OF_ASC_NODE":175.6935,"ARG_OF_PERICENTER":296.0103,"MEAN_ANOMALY":64.022,"EPHEMERIS_TYPE":0,"CLASSIFICATION_TYPE":"U","NORAD_CAT_ID":57195,"ELEMENT_SET_NO":999,"REV_AT_EPOCH":15608,"BSTAR":0.00030599789,"MEAN_MOTION_DOT":6.489e-5,"MEAN_MOTION_DDOT":0},{"OBJECT_NAME":"HORS 2","OBJECT_ID":"2023-091AG","EPOCH":"2026-04-25T21:12:55.107360","MEAN_MOTION":15.30554283,"ECCENTRICITY":0.000674,"INCLINATION":97.5123,"RA_OF_ASC_NODE":182.2472,"ARG_OF_PERICENTER":265.0666,"MEAN_ANOMALY":94.9805,"EPHEMERIS_TYPE":0,"CLASSIFICATION_TYPE":"U","NORAD_CAT_ID":57196,"ELEMENT_SET_NO":999,"REV_AT_EPOCH":15652,"BSTAR":0.00050697425,"MEAN_MOTION_DOT":0.00014921,"MEAN_MOTION_DDOT":0},{"OBJECT_NAME":"A-SEANSAT-PG1","OBJECT_ID":"2023-091AH","EPOCH":"2026-04-25T21:28:26.511456","MEAN_MOTION":15.35138758,"ECCENTRICITY":0.00059987,"INCLINATION":97.5112,"RA_OF_ASC_NODE":184.4279,"ARG_OF_PERICENTER":258.8669,"MEAN_ANOMALY":101.19,"EPHEMERIS_TYPE":0,"CLASSIFICATION_TYPE":"U","NORAD_CAT_ID":57197,"ELEMENT_SET_NO":999,"REV_AT_EPOCH":15668,"BSTAR":0.00056525868,"MEAN_MOTION_DOT":0.00019231,"MEAN_MOTION_DDOT":0},{"OBJECT_NAME":"SITRO-AIS 10 (BURDAEV)","OBJECT_ID":"2023-091AK","EPOCH":"2026-04-25T22:13:11.608320","MEAN_MOTION":15.36634984,"ECCENTRICITY":0.00055536,"INCLINATION":97.5111,"RA_OF_ASC_NODE":185.2936,"ARG_OF_PERICENTER":250.5505,"MEAN_ANOMALY":109.5139,"EPHEMERIS_TYPE":0,"CLASSIFICATION_TYPE":"U","NORAD_CAT_ID":57199,"ELEMENT_SET_NO":999,"REV_AT_EPOCH":15673,"BSTAR":0.00067540634,"MEAN_MOTION_DOT":0.00024135,"MEAN_MOTION_DDOT":0},{"OBJECT_NAME":"SITRO-AIS 9 (SHCHUKIN)","OBJECT_ID":"2023-091AM","EPOCH":"2026-04-25T22:28:39.839808","MEAN_MOTION":15.36196548,"ECCENTRICITY":0.00057622,"INCLINATION":97.5109,"RA_OF_ASC_NODE":185.0731,"ARG_OF_PERICENTER":251.2271,"MEAN_ANOMALY":108.8348,"EPHEMERIS_TYPE":0,"CLASSIFICATION_TYPE":"U","NORAD_CAT_ID":57201,"ELEMENT_SET_NO":999,"REV_AT_EPOCH":15672,"BSTAR":0.00061274005,"MEAN_MOTION_DOT":0.00021576,"MEAN_MOTION_DDOT":0},{"OBJECT_NAME":"UTMN 2 (RS27S)","OBJECT_ID":"2023-091AP","EPOCH":"2026-04-25T22:01:10.266816","MEAN_MOTION":15.30756617,"ECCENTRICITY":0.00067126,"INCLINATION":97.5121,"RA_OF_ASC_NODE":182.4589,"ARG_OF_PERICENTER":259.6272,"MEAN_ANOMALY":100.4212,"EPHEMERIS_TYPE":0,"CLASSIFICATION_TYPE":"U","NORAD_CAT_ID":57203,"ELEMENT_SET_NO":999,"REV_AT_EPOCH":15654,"BSTAR":0.00050198594,"MEAN_MOTION_DOT":0.00014866,"MEAN_MOTION_DDOT":0},{"OBJECT_NAME":"SITRO-AIS 12 (SMIRENNIY)","OBJECT_ID":"2023-091AQ","EPOCH":"2026-04-25T22:29:05.605152","MEAN_MOTION":15.3647142,"ECCENTRICITY":0.00055392,"INCLINATION":97.5121,"RA_OF_ASC_NODE":185.5084,"ARG_OF_PERICENTER":243.4901,"MEAN_ANOMALY":116.5775,"EPHEMERIS_TYPE":0,"CLASSIFICATION_TYPE":"U","NORAD_CAT_ID":57204,"ELEMENT_SET_NO":999,"REV_AT_EPOCH":15674,"BSTAR":0.00061594539,"MEAN_MOTION_DOT":0.00021881,"MEAN_MOTION_DDOT":0},{"OBJECT_NAME":"SITRO-AIS 11 (SHEFFER)","OBJECT_ID":"2023-091AU","EPOCH":"2026-04-25T21:34:18.074784","MEAN_MOTION":15.36851454,"ECCENTRICITY":0.00055049,"INCLINATION":97.512,"RA_OF_ASC_NODE":185.6852,"ARG_OF_PERICENTER":243.2709,"MEAN_ANOMALY":116.7971,"EPHEMERIS_TYPE":0,"CLASSIFICATION_TYPE":"U","NORAD_CAT_ID":57208,"ELEMENT_SET_NO":999,"REV_AT_EPOCH":15675,"BSTAR":0.00055932782,"MEAN_MOTION_DOT":0.00020102,"MEAN_MOTION_DDOT":0}]
